OBJECT_NAME,OBJECT_ID,EPOCH,MEAN_MOTION,ECCENTRICITY,INCLINATION,RA_OF_ASC_NODE,ARG_OF_PERICENTER,MEAN_ANOMALY,EPHEMERIS_TYPE,CLASSIFICATION_TYPE,NORAD_CAT_ID,ELEMENT_SET_NO,REV_AT_EPOCH,BSTAR,MEAN_MOTION_DOT,MEAN_MOTION_DDOT
STARLINK-5836,2023-061N,2026-06-16T19:05:22.719840,15.27580836,.0000887,43.0092,358.4600,291.8835,68.1923,0,U,56386,999,17190,.35606E-4,.718E-5,0
STARLINK-6178,2023-061P,2026-06-17T05:12:40.049280,15.27576456,.0001219,43.0043,355.6010,274.0881,85.9832,0,U,56387,999,17197,.17556E-4,.221E-5,0
STARLINK-6176,2023-061Q,2026-06-16T19:20:10.911840,15.27577718,.0001384,43.0085,358.5167,271.4899,88.5794,0,U,56388,999,17190,.14162E-4,.127E-5,0
STARLINK-6145,2023-061R,2026-06-16T06:26:34.296000,15.27580447,.0001961,43.0065,1.3776,269.7588,90.3039,0,U,56389,999,17182,.31033E-4,.592E-5,0
STARLINK-6298,2023-061T,2026-06-17T05:07:07.283136,15.27572130,.000082,43.0039,355.5673,275.0329,85.0429,0,U,56391,999,17197,.56119E-4,.1282E-4,0
STARLINK-6301,2023-061U,2026-06-16T05:36:50.865984,15.27575832,.0002016,43.0124,350.6958,274.2689,85.7932,0,U,56392,999,17194,.16255E-5,-.218E-5,0
STARLINK-6303,2023-061V,2026-06-16T06:06:13.798368,15.27574025,.0001428,43.0067,1.2727,271.4985,88.5703,0,U,56393,999,17182,.49933E-6,-.248E-5,0
STARLINK-6305,2023-061W,2026-06-17T04:13:41.141568,15.27581523,.0001448,42.9977,344.8681,269.1413,90.9273,0,U,56394,999,17209,.34281E-4,.681E-5,0
STARLINK-6273,2023-061X,2026-06-16T18:36:00.501120,15.27575016,.000189,43.0071,347.8693,274.7052,85.3584,0,U,56395,999,17273,-.30899E-5,-.347E-5,0
STARLINK-6302,2023-061Y,2026-06-17T04:30:20.117376,15.27578054,.0001279,43.0020,344.9508,274.4702,85.6004,0,U,56396,999,16722,.11815E-4,.63E-6,0
STARLINK-6271,2023-061Z,2026-06-16T18:24:53.883648,15.27579855,.0001453,43.0055,347.8104,259.8504,100.2184,0,U,56397,999,17202,.25141E-4,.43E-5,0
STARLINK-6288,2023-061AA,2026-06-17T04:35:53.330208,15.27576445,.0001104,43.0040,344.9761,274.1094,85.9631,0,U,56398,999,17209,.15766E-4,.172E-5,0
STARLINK-6277,2023-061AB,2026-06-17T04:24:47.537856,15.27574932,.0000899,43.0054,344.9248,270.4388,89.6360,0,U,56399,999,17209,.29274E-5,-.181E-5,0
STARLINK-6267,2023-061AC,2026-06-17T04:41:26.412576,15.27575719,.0001323,43.0050,345.0096,267.7830,92.2870,0,U,56400,999,17209,.14749E-4,.144E-5,0
STARLINK-6287,2023-061AG,2026-06-17T05:12:53.804160,15.27576585,.0000842,42.9990,345.1614,265.3725,94.7031,0,U,56404,999,17209,.29281E-4,.544E-5,0
STARLINK-6285,2023-061AH,2026-06-16T19:20:12.141312,15.27575160,.0001207,43.0056,347.2406,266.6937,93.3777,0,U,56405,999,17203,.95494E-5,.1E-7,0
STARLINK-6283,2023-061AJ,2026-06-16T18:34:09.293088,15.27577181,.0001471,43.0032,347.8475,249.4523,110.6171,0,U,56406,999,17202,.15722E-4,.17E-5,0
STARLINK-6282,2023-061AK,2026-06-17T05:07:20.992224,15.27575922,.0000776,42.9983,345.1379,273.5576,86.5187,0,U,56407,999,17209,.71957E-5,-.64E-6,0
STARLINK-6289,2023-061AL,2026-06-17T04:15:32.480064,15.27582520,.0001605,42.9989,344.8508,277.7741,82.2929,0,U,56408,999,17209,.63664E-4,.149E-4,0
STARLINK-6241,2023-061AM,2026-06-17T05:16:35.377824,15.27580889,.0001752,43.0081,345.1854,274.7178,85.3474,0,U,56409,999,17209,.29046E-4,.537E-5,0
STARLINK-6281,2023-061AN,2026-06-16T18:41:20.785056,15.27576204,.0001205,43.0042,347.0335,268.0376,92.0337,0,U,56410,999,17203,.95635E-5,.1E-7,0
STARLINK-6279,2023-061AP,2026-06-15T18:50:42.304704,15.27577066,.00017695,43.0062,353.3374,281.3274,78.7379,0,U,56411,999,17187,.22633091E-4,.36E-5,0
STARLINK-6278,2023-061AQ,2026-06-16T19:01:41.875392,15.27575581,.0001126,43.0048,347.1370,267.5420,92.5303,0,U,56412,999,17203,.52311E-7,-.261E-5,0
STARLINK-6258,2023-061AR,2026-06-16T18:39:42.707232,15.27570896,.0001504,43.0019,347.8797,264.0889,95.9791,0,U,56413,999,17202,-.87022E-5,-.502E-5,0
STARLINK-5136,2023-061AS,2026-06-17T04:58:05.765088,15.27577160,.000101,43.0018,345.0822,278.4742,81.5995,0,U,56414,999,17209,.21431E-4,.328E-5,0
STARLINK-6260,2023-061AU,2026-06-17T04:31:42.599136,15.27584660,.0001298,43.0049,337.9090,284.2200,75.8508,0,U,56416,999,17217,.31454E-4,.604E-5,0
STARLINK-6261,2023-061AV,2026-06-17T04:37:47.155296,15.27546326,.0000159,43.0137,344.9764,198.9013,161.1833,0,U,56417,999,17209,-.22436E-4,-.878E-5,0
STARLINK-5356,2023-061AW,2026-06-17T03:45:26.680320,15.27575324,.0001146,43.0012,337.6622,269.0358,91.0362,0,U,56418,999,17217,.12588E-4,.84E-6,0
STARLINK-5350,2023-061AX,2026-06-17T05:03:38.227104,15.27577450,.0001757,43.0085,345.1138,268.0404,92.0247,0,U,56419,999,17209,.10048E-4,.14E-6,0
STARLINK-6272,2023-061AY,2026-06-17T03:56:32.534016,15.27578390,.0001269,42.9991,337.7202,269.3346,90.7361,0,U,56420,999,17217,.23492E-4,.384E-5,0
STARLINK-6270,2023-061AZ,2026-06-17T04:19:53.725152,15.27586712,.0000069,43.0142,341.2559,108.1378,251.9482,0,U,56421,999,17213,.76396E-4,.1841E-4,0
STARLINK-6236,2023-061BA,2026-06-17T04:11:20.999904,15.27573357,.0001224,43.0027,337.7979,267.2044,92.8668,0,U,56422,999,17217,-.72968E-5,-.463E-5,0
STARLINK-6239,2023-061BB,2026-06-17T04:02:06.499392,15.27564447,.0001627,42.9954,337.7478,278.4395,81.6272,0,U,56423,999,17217,-.23654E-4,-.913E-5,0
STARLINK-6242,2023-061BC,2026-06-17T04:22:27.600960,15.27584038,.0000861,43.0046,337.8574,270.9389,89.1364,0,U,56424,999,17217,.55162E-4,.1256E-4,0
STARLINK-6224,2023-061BD,2026-06-17T04:16:53.336640,15.27579567,.000162,42.9976,337.8262,273.2579,86.8087,0,U,56425,999,17217,.21227E-5,-.204E-5,0
STARLINK-5352,2023-061BE,2026-06-17T04:39:05.865696,15.27577441,.0001593,43.0031,337.9314,268.3721,91.6949,0,U,56426,999,17217,.37065E-4,.758E-5,0
STARLINK-5724,2023-061BF,2026-06-17T04:42:47.785824,15.27583212,.0001849,43.0030,337.9499,271.0516,89.0124,0,U,56427,999,17217,.51485E-4,.1155E-4,0
STARLINK-6238,2023-061BG,2026-06-17T04:27:59.892768,15.27580697,.0001497,43.0018,337.8846,280.5189,79.5494,0,U,56428,999,17217,.27042E-4,.482E-5,0
STARLINK-6264,2023-061BH,2026-06-17T04:33:28.285344,15.27607878,.0002262,43.0069,337.9052,281.8324,78.2274,0,U,56429,999,17217,-.32105E-3,-.9095E-4,0
STARLINK-5990,2023-064A,2026-06-17T11:47:38.992128,14.98335915,.0003358,69.9986,252.8869,267.1798,92.8977,0,U,56448,999,17019,-.10056E-3,-.1293E-4,0
STARLINK-5993,2023-064B,2026-06-17T12:17:28.389696,14.98338481,.0003058,69.9985,252.9585,269.5267,90.5542,0,U,56449,999,17019,-.1092E-4,-.223E-5,0
STARLINK-5970,2023-064C,2026-06-17T11:41:38.232384,14.98331153,.0003423,69.9985,252.8725,267.1820,92.8947,0,U,56450,999,17019,.24814E-4,.203E-5,0
STARLINK-5985,2023-064D,2026-06-17T12:11:27.311136,14.98320041,.000304,69.9984,252.9435,270.9437,89.1374,0,U,56451,999,17019,-.11255E-3,-.1435E-4,0
STARLINK-5986,2023-064E,2026-06-17T12:05:26.787264,14.98328885,.000326,69.9982,252.9293,269.3871,90.6914,0,U,56452,999,17019,.26769E-4,.226E-5,0
STARLINK-5935,2023-064F,2026-06-17T11:59:26.202048,14.98328091,.0003203,69.9985,252.9141,270.0400,90.0392,0,U,56453,999,17019,.15935E-4,.97E-6,0
STARLINK-5959,2023-064G,2026-06-17T11:29:22.665984,14.98332957,.0003631,69.9987,252.8419,268.0036,92.0707,0,U,56454,999,17019,.79151E-4,.852E-5,0
STARLINK-5987,2023-064H,2026-06-17T11:23:22.060032,14.98331338,.0003384,69.9989,252.8266,269.4110,90.6661,0,U,56455,999,17019,.26286E-4,.221E-5,0
STARLINK-5995,2023-064J,2026-06-17T11:41:23.966016,14.98331221,.000346,69.9987,252.8706,269.3420,90.7343,0,U,56456,999,17019,.24782E-4,.203E-5,0
STARLINK-5994,2023-064K,2026-06-17T11:35:23.221824,14.98332366,.0003321,69.9987,252.8560,267.5203,92.5576,0,U,56457,999,17019,.33064E-4,.301E-5,0
STARLINK-6050,2023-064L,2026-06-17T11:47:24.794016,14.98328268,.0003083,69.9994,252.8837,266.6364,93.4443,0,U,56458,999,17019,.83722E-4,.906E-5,0
STARLINK-6048,2023-064M,2026-06-17T10:59:33.758304,14.98330125,.0003407,69.9993,252.7707,268.6215,91.4553,0,U,56459,999,17018,.43335E-4,.424E-5,0
STARLINK-6047,2023-064N,2026-06-17T11:17:21.359904,14.98332133,.0003508,69.9990,252.8126,265.8579,94.2179,0,U,56460,999,17019,.32102E-4,.29E-5,0
STARLINK-6037,2023-064P,2026-06-17T12:29:26.886912,14.98331290,.000358,69.9992,252.5859,269.4378,90.6370,0,U,56461,999,17020,.59878E-4,.621E-5,0
STARLINK-6045,2023-064Q,2026-06-17T11:22:55.315776,14.98331284,.000375,69.9987,212.6555,268.9200,91.1529,0,U,56462,999,17118,.29668E-4,.261E-5,0
STARLINK-6051,2023-064R,2026-06-17T11:53:25.341216,14.98330610,.0003244,69.9986,252.8919,267.7905,92.2883,0,U,56463,999,17019,.12831E-4,.6E-6,0
STARLINK-6043,2023-064S,2026-06-17T11:11:20.772096,14.98331243,.0003393,69.9992,252.7984,269.4844,90.5926,0,U,56464,999,17019,.34659E-4,.321E-5,0
STARLINK-6054,2023-064T,2026-06-17T11:34:42.129984,14.98351896,.0003508,69.9992,212.6800,264.9059,95.1700,0,U,56465,999,17118,-.33383E-3,-.4076E-4,0
STARLINK-6053,2023-064U,2026-06-17T10:59:19.515264,14.98330309,.0003456,69.9994,252.7691,268.9878,91.0886,0,U,56466,999,17018,.40971E-4,.396E-5,0
STARLINK-6055,2023-064V,2026-06-17T11:29:03.274368,14.98333391,.0003514,69.9984,232.9725,267.5494,92.5263,0,U,56467,999,17068,.34944E-5,-.51E-6,0
STARLINK-5998,2023-064W,2026-06-17T12:23:26.261088,14.98330199,.0003546,69.9985,252.5696,269.3221,90.7532,0,U,56468,999,17020,.47327E-4,.472E-5,0
STARLINK-5518,2023-064X,2026-06-17T11:47:05.454240,14.98329740,.0003359,69.9987,233.0159,268.2354,91.8421,0,U,56469,999,17068,-.62051E-6,-.1E-5,0
STARLINK-5523,2023-064Y,2026-06-17T11:35:04.041024,14.98334088,.0003213,69.9986,232.9867,267.9552,92.1239,0,U,56470,999,17068,.30625E-5,-.57E-6,0
STARLINK-5521,2023-064Z,2026-06-17T11:23:03.027840,14.98328450,.0003296,69.9981,232.9570,271.0114,89.0668,0,U,56471,999,17068,.15614E-3,.177E-4,0
STARLINK-5038,2023-064AA,2026-06-17T11:11:01.522176,14.98330286,.0003492,69.9983,232.9291,268.6332,91.4427,0,U,56472,999,17068,.21932E-4,.169E-5,0
STARLINK-5524,2023-064AC,2026-06-17T11:41:04.602048,14.98331417,.0003392,69.9992,233.0021,265.2642,94.8129,0,U,56474,999,17068,.34465E-4,.318E-5,0
STARLINK-5541,2023-064AD,2026-06-17T11:05:00.974112,14.98330962,.0003467,69.9981,232.9106,269.8986,90.1776,0,U,56475,999,17068,.59393E-4,.616E-5,0
